GAOFEN-11 01            
1 43585U 18063A   26182.96949836  .00012212  00000+0  17888-3 0  9998
2 43585  97.1289 249.8094 0002090 269.7712  90.3303 15.55709047442645
ICESAT-2                
1 43613U 18070A   26182.88775019  .00011030  00000+0  40013-3 0  9992
2 43613  92.0094 294.9510 0006163  86.6432 273.5523 15.28288601434704
HYSIS                   
1 43719U 18096A   26182.89609663  .00001269  00000+0  18024-3 0  9999
2 43719  97.9839 249.5284 0001876  89.6414 270.5012 14.78647014409595
KAZSTSAT                
1 43783U 18099AB  26182.84115503  .00002032  00000+0  16819-3 0  9992
2 43783  97.4300 214.1060 0008342  28.4601 331.7077 14.99919253413505
SAUDISAT 5A             
1 43831U 18102A   26182.96379867  .00006702  00000+0  24608-3 0  9992
2 43831  97.3058 244.2607 0011225  84.4707 275.7813 15.28201846417933
SAUDISAT 5B             
1 43833U 18102C   26182.91472837  .00006461  00000+0  23552-3 0  9999
2 43833  97.3168 247.3090 0011965  86.4002 273.8606 15.28450264418040
GAOFEN-10R              
1 44622U 19066A   26182.92977856  .00001276  00000+0  16359-3 0  9994
2 44622  98.0503 136.6165 0007182  87.0937 273.1098 14.83032683364567
CARTOSAT-3              
1 44804U 19081A   26182.91078567  .00004523  00000+0  21743-3 0  9994
2 44804  97.4299 244.5408 0013375 101.9262 258.3473 15.19241525365707
GAOFEN-12 01            
1 44819U 19082A   26182.94900087  .00000423  00000+0  61971-4 0  9998
2 44819  97.8102 188.9388 0001665  55.5601 304.5769 14.80470612356270
CSG-1                   
1 44873U 19092A   26182.97115793  .00000452  00000+0  63308-4 0  9992
2 44873  97.8891   6.3597 0001408  90.6257 269.5118 14.82156882353662
NEMO-HD                 
1 46277U 20061F   26182.96405337  .00013898  00000+0  29751-3 0  9996
2 46277  97.1910 244.7699 0001515  73.7900 286.3516 15.44895855324266
SENTINEL-6A             
1 46984U 20086A   26182.91991155 -.00000054  00000+0  31851-4 0  9997
2 46984  66.0412 104.4533 0007831 269.9704  90.0414 12.80929961262216
CAS500-1                
1 47932U 21022A   26182.93937624  .00007371  00000+0  34386-3 0  9998
2 47932  97.3884  77.8933 0003544 224.7909 135.3041 15.20138422293001
GAOFEN-12 02            
1 48079U 21026A   26182.96164625  .00000401  00000+0  59530-4 0  9997
2 48079  97.9925 181.0820 0004850 169.3343 190.7972 14.80307658283940
PLEIADES NEO 3          
1 48268U 21034A   26182.97522787  .00000306  00000+0  45519-4 0  9990
2 48268  97.8940 257.5286 0001372  92.6132 267.5238 14.81673922279844
PLEIADES NEO 4          
1 49070U 21073E   26182.40118295  .00000739  00000+0  10048-3 0  9996
2 49070  97.8938 256.9596 0001357  89.2365 270.9003 14.81677791263471
LANDSAT 9               
1 49260U 21088A   26182.68588930  .00000362  00000+0  90391-4 0  9992
2 49260  98.2276 252.6876 0001206  87.2651 272.8685 14.57107136253116
CSG-2                   
1 51444U 22008A   26182.93739551  .00000903  00000+0  11998-3 0  9993
2 51444  97.8881   6.3208 0001568  85.2328 274.9064 14.82156002238776
GAOFEN-12 03            
1 52912U 22069A   26182.99414750  .00001520  00000+0  20731-3 0  9999
2 52912  97.8265  70.4908 0002464  86.9715 273.1779 14.80059597216809
SWOT                    
1 54754U 22173A   26182.92219235  .00000105  00000+0  72802-4 0  9990
2 54754  77.6102  15.4174 0000319  87.8940 272.2249 14.00171311181211
GAOFEN-12 04            
1 57654U 23123A   26182.94355925  .00001056  00000+0  14730-3 0  9998
2 57654  97.9113 100.7444 0003951  76.9217 283.2435 14.79754418154815
PARS 1                  
1 59065U 24039Q   26182.94364919  .00013946  00000+0  28665-3 0  9999
2 59065  97.4829 164.3312 0011132  68.2762 291.9671 15.46037698130924
RESURS-P 4              
1 59371U 24061A   26182.95773431  .00003551  00000+0  11664-3 0  9990
2 59371  97.2760 130.6000 0003022 108.9111 251.2459 15.32215182126025
LEGION 1                
1 59625U 24081A   26182.93918599  .00004290  00000+0  22183-3 0  9997
2 59625  97.5016 260.6393 0008127 324.3003  35.7685 15.16767695119771
LEGION 2                
1 59626U 24081B   26182.90340577  .00004578  00000+0  23656-3 0  9995
2 59626  97.5017 260.7010 0009865 286.4510  73.5639 15.16744341119773
ALOS-4 (DAICHI-4)       
1 60182U 24123A   26182.90248516  .00001573  00000+0  21751-3 0  9997
2 60182  97.9219 279.8674 0001628  97.5098 262.6298 14.79472530108055
LEGION 3                
1 60452U 24146A   26182.82482369  .00005003  00000+0  27247-3 0  9997
2 60452  45.0019 312.0498 0008883 265.4794  94.5070 15.15579280104248
LEGION 4                
1 60453U 24146B   26182.95948087  .00004996  00000+0  26768-3 0  9993
2 60453  45.0025  43.2340 0011997  30.3205 329.8366 15.16150783103112
SENTINEL-2C             
1 60989U 24157A   26182.92777018  .00000112  00000+0  59447-4 0  9997
2 60989  98.5690 257.5012 0000901  94.2219 265.9067 14.30821767 95097
IONOSFERA-M 1           
1 61735U 24199A   26182.89189805  .00000048  00000+0  41014-4 0  9999
2 61735  98.7154  55.9077 0002205  90.8618 269.2813 14.22756954129796
