OBJECT_NAME,OBJECT_ID,EPOCH,MEAN_MOTION,ECCENTRICITY,INCLINATION,RA_OF_ASC_NODE,ARG_OF_PERICENTER,MEAN_ANOMALY,EPHEMERIS_TYPE,CLASSIFICATION_TYPE,NORAD_CAT_ID,ELEMENT_SET_NO,REV_AT_EPOCH,BSTAR,MEAN_MOTION_DOT,MEAN_MOTION_DDOT
GAOFEN-11 01,2018-063A,2026-07-01T23:16:04.658304,15.55709047,.00020909,97.1289,249.8094,269.7712,90.3303,0,U,43585,999,44264,.17888396E-3,.12212E-3,0
ICESAT-2,2018-070A,2026-07-01T21:18:21.616416,15.28288601,.00061636,92.0094,294.9510,86.6432,273.5523,0,U,43613,999,43470,.40013123E-3,.1103E-3,0
HYSIS,2018-096A,2026-07-01T21:30:22.748832,14.78647014,.00018769,97.9839,249.5284,89.6414,270.5012,0,U,43719,999,40959,.18023971E-3,.1269E-4,0
KAZSTSAT,2018-099AB,2026-07-01T20:11:15.794592,14.99919253,.0008342,97.4300,214.1060,28.4601,331.7077,0,U,43783,999,41350,.16818591E-3,.2032E-4,0
SAUDISAT 5A,2018-102A,2026-07-01T23:07:52.205088,15.28201846,.00112257,97.3058,244.2607,84.4707,275.7813,0,U,43831,999,41793,.24607996E-3,.6702E-4,0
SAUDISAT 5B,2018-102C,2026-07-01T21:57:12.531168,15.28450264,.00119655,97.3168,247.3090,86.4002,273.8606,0,U,43833,999,41804,.23551815E-3,.6461E-4,0
GAOFEN-10R,2019-066A,2026-07-01T22:18:52.867584,14.83032683,.00071826,98.0503,136.6165,87.0937,273.1098,0,U,44622,999,36456,.16359048E-3,.1276E-4,0
CARTOSAT-3,2019-081A,2026-07-01T21:51:31.881888,15.19241525,.00133751,97.4299,244.5408,101.9262,258.3473,0,U,44804,999,36570,.21742787E-3,.4523E-4,0
GAOFEN-12 01,2019-082A,2026-07-01T22:46:33.675168,14.80470612,.00016658,97.8102,188.9388,55.5601,304.5769,0,U,44819,999,35627,.61971294E-4,.423E-5,0
CSG-1,2019-092A,2026-07-01T23:18:28.045152,14.82156882,.0001408,97.8891,6.3597,90.6257,269.5118,0,U,44873,999,35366,.63308168E-4,.452E-5,0
NEMO-HD,2020-061F,2026-07-01T23:08:14.211168,15.44895855,.00015159,97.1910,244.7699,73.7900,286.3516,0,U,46277,999,32426,.29751473E-3,.13898E-3,0
SENTINEL-6A,2020-086A,2026-07-01T22:04:40.357920,12.80929961,.00078315,66.0412,104.4533,269.9704,90.0414,0,U,46984,999,26221,.31850534E-4,-.54E-6,0
CAS500-1,2021-022A,2026-07-01T22:32:42.107136,15.20138422,.00035443,97.3884,77.8933,224.7909,135.3041,0,U,47932,999,29300,.34386132E-3,.7371E-4,0
GAOFEN-12 02,2021-026A,2026-07-01T23:04:46.236000,14.80307658,.000485,97.9925,181.0820,169.3343,190.7972,0,U,48079,999,28394,.5953023E-4,.401E-5,0
PLEIADES NEO 3,2021-034A,2026-07-01T23:24:19.687968,14.81673922,.00013723,97.8940,257.5286,92.6132,267.5238,0,U,48268,999,27984,.45519349E-4,.306E-5,0
PLEIADES NEO 4,2021-073E,2026-07-01T09:37:42.206880,14.81677791,.00013574,97.8938,256.9596,89.2365,270.9003,0,U,49070,999,26347,.10047507E-3,.739E-5,0
LANDSAT 9,2021-088A,2026-07-01T16:27:40.835520,14.57107136,.00012065,98.2276,252.6876,87.2651,272.8685,0,U,49260,999,25311,.90391078E-4,.362E-5,0
CSG-2,2022-008A,2026-07-01T22:29:50.972064,14.82156002,.0001568,97.8881,6.3208,85.2328,274.9064,0,U,51444,999,23877,.11997918E-3,.903E-5,0
GAOFEN-12 03,2022-069A,2026-07-01T23:51:34.344000,14.80059597,.00024648,97.8265,70.4908,86.9715,273.1779,0,U,52912,999,21680,.2073137E-3,.152E-4,0
SWOT,2022-173A,2026-07-01T22:07:57.419040,14.00171311,.00003199,77.6102,15.4174,87.8940,272.2249,0,U,54754,999,18121,.72801679E-4,.105E-5,0
GAOFEN-12 04,2023-123A,2026-07-01T22:38:43.519200,14.79754418,.00039514,97.9113,100.7444,76.9217,283.2435,0,U,57654,999,15481,.14730146E-3,.1056E-4,0
PARS 1,2024-039Q,2026-07-01T22:38:51.290016,15.46037698,.00111324,97.4829,164.3312,68.2762,291.9671,0,U,59065,999,13092,.2866503E-3,.13946E-3,0
RESURS-P 4,2024-061A,2026-07-01T22:59:08.244384,15.32215182,.00030224,97.2760,130.6000,108.9111,251.2459,0,U,59371,999,12602,.11663652E-3,.3551E-4,0
LEGION 1,2024-081A,2026-07-01T22:32:25.669536,15.16767695,.00081275,97.5016,260.6393,324.3003,35.7685,0,U,59625,999,11977,.22182771E-3,.429E-4,0
LEGION 2,2024-081B,2026-07-01T21:40:54.258528,15.16744341,.00098656,97.5017,260.7010,286.4510,73.5639,0,U,59626,999,11977,.23656033E-3,.4578E-4,0
ALOS-4 (DAICHI-4),2024-123A,2026-07-01T21:39:34.717824,14.79472530,.00016284,97.9219,279.8674,97.5098,262.6298,0,U,60182,999,10805,.21750659E-3,.1573E-4,0
LEGION 3,2024-146A,2026-07-01T19:47:44.766816,15.15579280,.00088834,45.0019,312.0498,265.4794,94.5070,0,U,60452,999,10424,.27247017E-3,.5003E-4,0
LEGION 4,2024-146B,2026-07-01T23:01:39.147168,15.16150783,.00119978,45.0025,43.2340,30.3205,329.8366,0,U,60453,999,10311,.26768086E-3,.4996E-4,0
SENTINEL-2C,2024-157A,2026-07-01T22:15:59.343552,14.30821767,.00009016,98.5690,257.5012,94.2219,265.9067,0,U,60989,999,9509,.59446747E-4,.112E-5,0
IONOSFERA-M 1,2024-199A,2026-07-01T21:24:19.991520,14.22756954,.00022059,98.7154,55.9077,90.8618,269.2813,0,U,61735,999,12979,.4101408E-4,.48E-6,0
